[{"OBJECT_NAME":"STARLINK-3957","OBJECT_ID":"2022-051AF","EPOCH":"2026-03-09T09:01:37.949088","MEAN_MOTION":15.08829814,"ECCENTRICITY":0.00012835,"INCLINATION":53.2167,"RA_OF_ASC_NODE":120.527,"ARG_OF_PERICENTER":82.2359,"MEAN_ANOMALY":277.8779,"EPHEMERIS_TYPE":0,"CLASSIFICATION_TYPE":"U","NORAD_CAT_ID":52562,"ELEMENT_SET_NO":999,"REV_AT_EPOCH":21153,"BSTAR":-9.6119038e-5,"MEAN_MOTION_DOT":-1.817e-5,"MEAN_MOTION_DDOT":0},{"OBJECT_NAME":"OBJECT G","OBJECT_ID":"2026-027G","EPOCH":"2026-03-09T21:53:37.288032","MEAN_MOTION":15.12145257,"ECCENTRICITY":0.00120269,"INCLINATION":97.4906,"RA_OF_ASC_NODE":197.8999,"ARG_OF_PERICENTER":227.3105,"MEAN_ANOMALY":132.7114,"EPHEMERIS_TYPE":0,"CLASSIFICATION_TYPE":"U","NORAD_CAT_ID":67752,"ELEMENT_SET_NO":999,"REV_AT_EPOCH":389,"BSTAR":0.00053594907,"MEAN_MOTION_DOT":9.195e-5,"MEAN_MOTION_DDOT":0}]
